NORAD_CAT_ID,OBJECT_NAME,OBJECT_TYPE,EPOCH,MEAN_MOTION,ECCENTRICITY,INCLINATION,RA_OF_ASC_NODE,ARG_OF_PERICENTER,MEAN_ANOMALY,BSTAR,MEAN_MOTION_DOT,MEAN_MOTION_DDOT,TLE_LINE0,TLE_LINE1,TLE_LINE2,SEMIMAJOR_AXIS,PERIOD,APOGEE,PERIGEE,DECAYED
50806.0,STARLINK-3335,PAYLOAD,2024-07-18 16:08:33,15.0884178,0.0001657,53.2198,328.2181,63.2304,296.8858,-4.4106e-05,-9.9e-06,0.0,0 STARLINK-3335,1 50806U 22001D   24200.67260651 -.00000990  00000-0 -44106-4 0  9994,2 50806  53.2198 328.2181 0001657  63.2304 296.8858 15.08841780141386,6917.875,95.437,540.886,538.594,0.0
50806.0,STARLINK-3335,PAYLOAD,2024-07-19 14:23:56,15.08843006,0.0001111,53.218,324.0505,77.4364,282.6753,0.00011754,1.583e-05,0.0,0 STARLINK-3335,1 50806U 22001D   24201.59995982  .00001583  00000-0  11754-3 0  9997,2 50806  53.2180 324.0505 0001111  77.4364 282.6753 15.08843006140254,6917.871,95.437,540.505,538.968,0.0
50806.0,STARLINK-3335,PAYLOAD,2024-07-19 15:59:18,15.08857953,0.0001669,53.2188,323.7549,54.725,305.3898,0.00027062,4.024e-05,0.0,0 STARLINK-3335,1 50806U 22001D   24201.66618826  .00004024  00000-0  27062-3 0  9996,2 50806  53.2188 323.7549 0001669  54.7250 305.3898 15.08857953141537,6917.826,95.436,540.845,538.536,0.0
50806.0,STARLINK-3335,PAYLOAD,2024-07-20 01:31:37,15.08850301,0.0001273,53.2196,321.9733,77.186,282.9274,9.9248e-05,1.292e-05,0.0,0 STARLINK-3335,1 50806U 22001D   24202.06363234  .00001292  00000-0  99248-4 0  9991,2 50806  53.2196 321.9733 0001273  77.1860 282.9274 15.08850301141592,6917.849,95.437,540.595,538.833,0.0
50806.0,STARLINK-3335,PAYLOAD,2024-07-20 12:39:20,15.08847002,0.0001586,53.2182,319.8898,89.0023,271.1151,5.0794e-05,5.21e-06,0.0,0 STARLINK-3335,1 50806U 22001D   24202.52731971  .00000521  00000-0  50794-4 0  9996,2 50806  53.2182 319.8898 0001586  89.0023 271.1151 15.08847002141661,6917.859,95.437,540.821,538.627,0.0
50806.0,STARLINK-3335,PAYLOAD,2024-07-20 14:14:43,15.08844884,0.0001178,53.2178,319.5943,93.5988,266.5139,2.8988e-05,1.74e-06,0.0,0 STARLINK-3335,1 50806U 22001D   24202.59356038  .00000174  00000-0  28988-4 0  9994,2 50806  53.2178 319.5943 0001178  93.5988 266.5139 15.08844884140401,6917.865,95.437,540.545,538.916,0.0
50806.0,STARLINK-3335,PAYLOAD,2024-07-21 12:30:07,15.08827587,0.0001774,53.2188,315.4255,120.3978,239.719,0.00018323,2.628e-05,0.0,0 STARLINK-3335,1 50806U 22001D   24203.52092424  .00002628  00000-0  18323-3 0  9991,2 50806  53.2188 315.4255 0001774 120.3978 239.7190 15.08827587141819,6917.918,95.438,541.011,538.556,0.0
50806.0,STARLINK-3335,PAYLOAD,2024-07-21 14:05:31,15.08845782,0.0001455,53.219,315.1318,94.8354,265.2804,-0.00013862,-2.494e-05,0.0,0 STARLINK-3335,1 50806U 22001D   24203.58716505 -.00002494  00000-0 -13862-3 0  9996,2 50806  53.2190 315.1318 0001455  94.8354 265.2804 15.08845782140551,6917.863,95.437,540.734,538.721,0.0
50806.0,STARLINK-3335,PAYLOAD,2024-07-22 07:34:45,15.08831402,0.0001399,53.2192,311.8605,104.501,255.6137,0.00011156,1.488e-05,0.0,0 STARLINK-3335,1 50806U 22001D   24204.31580675  .00001488  00000-0  11156-3 0  9999,2 50806  53.2192 311.8605 0001399 104.5010 255.6137 15.08831402141939,6917.907,95.438,540.739,538.804,0.0
50806.0,STARLINK-3335,PAYLOAD,2024-07-23 02:39:23,15.0883579,0.0001559,53.2175,308.2962,75.2398,284.8767,0.00021926,3.203e-05,0.0,0 STARLINK-3335,1 50806U 22001D   24205.11068298  .00003203  00000-0  21926-3 0  9993,2 50806  53.2175 308.2962 0001559  75.2398 284.8767 15.08835790142058,6917.893,95.438,540.837,538.68,0.0
50806.0,STARLINK-3335,PAYLOAD,2024-07-23 13:47:01,15.08924195,9.41e-05,53.2175,306.2117,109.3752,250.7342,-0.00089132,-0.00014478,0.0,0 STARLINK-3335,1 50806U 22001D   24205.57432823 -.00014478  00000-0 -89132-3 0  9993,2 50806  53.2175 306.2117 0000941 109.3752 250.7342 15.08924195140850,6917.623,95.432,540.139,538.837,0.0
50806.0,STARLINK-3335,PAYLOAD,2024-07-23 18:33:13,15.0886351,0.0001307,53.2167,305.3195,98.7919,261.3222,0.00023284,3.422e-05,0.0,0 STARLINK-3335,1 50806U 22001D   24205.77307110  .00003422  00000-0  23284-3 0  9996,2 50806  53.2167 305.3195 0001307  98.7919 261.3222 15.08863510142153,6917.809,95.436,540.578,538.769,0.0
50806.0,STARLINK-3335,PAYLOAD,2024-07-24 05:40:56,15.08834885,0.0001514,53.2169,303.2387,105.1448,254.9711,-5.7626e-05,-1.205e-05,0.0,0 STARLINK-3335,1 50806U 22001D   24206.23676756 -.00001205  00000-0 -57626-4 0  9990,2 50806  53.2169 303.2387 0001514 105.1448 254.9711 15.08834885142227,6917.896,95.438,540.808,538.714,0.0
50806.0,STARLINK-3335,PAYLOAD,2024-07-24 13:37:52,15.08836397,0.0001391,53.2166,301.752,90.7027,269.4124,-1.6927e-05,-5.57e-06,0.0,0 STARLINK-3335,1 50806U 22001D   24206.56796795 -.00000557  00000-0 -16927-4 0  9990,2 50806  53.2166 301.7520 0001391  90.7027 269.4124 15.08836397141005,6917.891,95.438,540.719,538.794,0.0
50806.0,STARLINK-3335,PAYLOAD,2024-07-24 18:24:01,15.08844352,0.0001376,53.2163,300.8595,86.16,273.9549,0.00035343,5.342e-05,0.0,0 STARLINK-3335,1 50806U 22001D   24206.76668576  .00005342  00000-0  35343-3 0  9994,2 50806  53.2163 300.8595 0001376  86.1600 273.9549 15.08844352142308,6917.867,95.437,540.684,538.78,0.0
50806.0,STARLINK-3335,PAYLOAD,2024-07-25 07:07:07,15.08847535,0.0001447,53.2159,298.4808,82.3953,277.7204,0.00099993,0.00015665,0.0,0 STARLINK-3335,1 50806U 22001D   24207.29660992  .00015665  00000-0  99993-3 0  9997,2 50806  53.2159 298.4808 0001447  82.3953 277.7204 15.08847535141114,6917.857,95.437,540.723,538.721,0.0
50806.0,STARLINK-3335,PAYLOAD,2024-07-25 18:14:48,15.08869436,0.0001405,53.2156,296.3989,83.4407,276.6745,0.00128,0.00020158,0.0,0 STARLINK-3335,1 50806U 22001D   24207.76028290  .00020158  00000-0  12800-2 0  9992,2 50806  53.2156 296.3989 0001405  83.4407 276.6745 15.08869436141187,6917.79,95.436,540.627,538.683,0.0
50806.0,STARLINK-3335,PAYLOAD,2024-07-26 10:08:40,15.08850119,0.0001473,53.2153,293.4253,85.3626,274.7534,0.00055885,8.62e-05,0.0,0 STARLINK-3335,1 50806U 22001D   24208.42268701  .00008620  00000-0  55885-3 0  9990,2 50806  53.2153 293.4253 0001473  85.3626 274.7534 15.08850119142550,6917.849,95.437,540.733,538.695,0.0
50806.0,STARLINK-3335,PAYLOAD,2024-07-26 13:19:26,15.0885588,0.0001351,53.2151,292.831,86.3787,273.7359,0.0016507,0.00026092,0.0,0 STARLINK-3335,1 50806U 22001D   24208.55516701  .00026092  00000-0  16507-2 0  9990,2 50806  53.2151 292.8310 0001351  86.3787 273.7359 15.08855880141305,6917.832,95.437,540.631,538.762,0.0
50806.0,STARLINK-3335,PAYLOAD,2024-07-27 09:59:27,15.08857647,0.0001403,53.2149,288.9646,102.0685,258.0464,0.0016101,0.00025442,0.0,0 STARLINK-3335,1 50806U 22001D   24209.41628744  .00025442  00000-0  16101-2 0  9995,2 50806  53.2149 288.9646 0001403 102.0685 258.0464 15.08857647142702,6917.826,95.436,540.662,538.721,0.0
50806.0,STARLINK-3335,PAYLOAD,2024-07-27 17:56:22,15.08868959,0.0001288,53.2149,287.4771,88.1157,271.9983,0.0013809,0.00021775,0.0,0 STARLINK-3335,1 50806U 22001D   24209.74748259  .00021775  00000-0  13809-2 0  9992,2 50806  53.2149 287.4771 0001288  88.1157 271.9983 15.08868959141486,6917.792,95.436,540.548,538.766,0.0
50806.0,STARLINK-3335,PAYLOAD,2024-07-28 11:25:37,15.08840884,0.0001722,53.2149,284.2039,99.597,260.5217,0.00072926,0.00011337,0.0,0 STARLINK-3335,1 50806U 22001D   24210.47612689  .00011337  00000-0  72926-3 0  9990,2 50806  53.2149 284.2039 0001722  99.5970 260.5217 15.08840884142864,6917.878,95.437,540.934,538.551,0.0
50806.0,STARLINK-3335,PAYLOAD,2024-07-28 22:33:19,15.08838099,0.0001714,53.2159,282.1238,81.9848,278.1339,0.00045432,6.95e-05,0.0,0 STARLINK-3335,1 50806U 22001D   24210.93980860  .00006950  00000-0  45432-3 0  9997,2 50806  53.2159 282.1238 0001714  81.9848 278.1339 15.08838099141665,6917.886,95.438,540.937,538.565,0.0
50806.0,STARLINK-3335,PAYLOAD,2024-07-29 11:16:24,15.0883557,0.00017,53.2167,279.7448,80.5989,279.5195,0.00064195,9.942e-05,0.0,0 STARLINK-3335,1 50806U 22001D   24211.46973329  .00009942  00000-0  64195-3 0  9999,2 50806  53.2167 279.7448 0001700  80.5989 279.5195 15.08835570143012,6917.894,95.438,540.935,538.583,0.0
50806.0,STARLINK-3335,PAYLOAD,2024-07-29 16:02:34,15.08842848,0.0001704,53.2169,278.8526,79.262,280.8564,0.00055869,8.615e-05,0.0,0 STARLINK-3335,1 50806U 22001D   24211.66845209  .00008615  00000-0  55869-3 0  9990,2 50806  53.2169 278.8526 0001704  79.2620 280.8564 15.08842848141774,6917.872,95.437,540.915,538.558,0.0
50806.0,STARLINK-3335,PAYLOAD,2024-07-30 11:07:11,15.08844555,0.0001586,53.2165,275.2843,80.49,279.6271,0.00030802,4.618e-05,0.0,0 STARLINK-3335,1 50806U 22001D   24212.46333297  .00004618  00000-0  30802-3 0  9997,2 50806  53.2165 275.2843 0001586  80.4900 279.6271 15.08844555143169,6917.866,95.437,540.829,538.634,0.0
50806.0,STARLINK-3335,PAYLOAD,2024-07-30 14:17:58,15.08851119,0.0001598,53.2164,274.6893,81.8026,278.3148,0.00039293,5.973e-05,0.0,0 STARLINK-3335,1 50806U 22001D   24212.59581128  .00005973  00000-0  39293-3 0  9997,2 50806  53.2164 274.6893 0001598  81.8026 278.3148 15.08851119141917,6917.846,95.437,540.817,538.606,0.0
50806.0,STARLINK-3335,PAYLOAD,2024-07-30 20:39:30,15.08848743,0.0001647,53.217,273.5,81.4852,278.6327,0.00039844,6.06e-05,0.0,0 STARLINK-3335,1 50806U 22001D   24212.86077185  .00006060  00000-0  39844-3 0  9990,2 50806  53.2170 273.5000 0001647  81.4852 278.6327 15.08848743141955,6917.854,95.437,540.858,538.579,0.0
50806.0,STARLINK-3335,PAYLOAD,2024-07-31 10:57:58,15.08864868,0.0001557,53.2164,270.8238,78.1682,281.9485,0.00062627,9.7e-05,0.0,0 STARLINK-3335,1 50806U 22001D   24213.45692407  .00009700  00000-0  62627-3 0  9995,2 50806  53.2164 270.8238 0001557  78.1682 281.9485 15.08864868142044,6917.804,95.436,540.746,538.592,0.0
50806.0,STARLINK-3335,PAYLOAD,2024-07-31 20:30:17,15.08852012,0.0001635,53.2173,269.0398,82.3178,277.7999,0.00022518,3.299e-05,0.0,0 STARLINK-3335,1 50806U 22001D   24213.85436530  .00003299  00000-0  22518-3 0  9994,2 50806  53.2173 269.0398 0001635  82.3178 277.7999 15.08852012143373,6917.844,95.437,540.84,538.578,0.0
